NORAD_CAT_ID,OBJECT_NAME,OBJECT_TYPE,EPOCH,MEAN_MOTION,ECCENTRICITY,INCLINATION,RA_OF_ASC_NODE,ARG_OF_PERICENTER,MEAN_ANOMALY,BSTAR,MEAN_MOTION_DOT,MEAN_MOTION_DDOT,TLE_LINE0,TLE_LINE1,TLE_LINE2,SEMIMAJOR_AXIS,PERIOD,APOGEE,PERIGEE,DECAYED
52648.0,STARLINK-3854,PAYLOAD,2022-12-22 08:14:43,15.08842199,0.0003495,53.2175,126.482,56.382,303.7505,3.8515e-05,3.24e-06,0.0,0 STARLINK-3854,1 52648U 22052BC  22356.34356201  .00000324  00000-0  38515-4 0  9993,2 52648  53.2175 126.4820 0003495  56.3820 303.7505 15.08842199 34375,6917.874,95.437,542.156,537.321,0.0
52648.0,STARLINK-3854,PAYLOAD,2022-12-22 11:25:30,15.08835357,0.0003208,53.218,125.8867,54.8212,305.308,-1.5652000000000002e-05,-5.38e-06,0.0,0 STARLINK-3854,1 52648U 22052BC  22356.47604522 -.00000538  00000-0 -15652-4 0  9995,2 52648  53.2180 125.8867 0003208  54.8212 305.3080 15.08835357 34010,6917.895,95.438,541.979,537.54,0.0
52648.0,STARLINK-3854,PAYLOAD,2022-12-22 17:47:03,15.08832254,0.0003404,53.2182,124.697,55.8328,304.2986,-2.0595e-05,-6.17e-06,0.0,0 STARLINK-3854,1 52648U 22052BC  22356.74100897 -.00000617  00000-0 -20595-4 0  9991,2 52648  53.2182 124.6970 0003404  55.8328 304.2986 15.08832254 34433,6917.904,95.438,542.124,537.414,0.0
52648.0,STARLINK-3854,PAYLOAD,2022-12-23 12:51:41,15.08830154,0.0003252,53.2181,121.1295,56.1409,303.9892,8.1777e-05,1.013e-05,0.0,0 STARLINK-3854,1 52648U 22052BC  22357.53589473  .00001013  00000-0  81777-4 0  9998,2 52648  53.2181 121.1295 0003252  56.1409 303.9892 15.08830154 34179,6917.91,95.438,542.025,537.526,0.0
52648.0,STARLINK-3854,PAYLOAD,2022-12-23 19:13:13,15.08836905,0.0003262,53.2182,119.94,56.2061,303.9241,0.00018323,2.629e-05,0.0,0 STARLINK-3854,1 52648U 22052BC  22357.80085342  .00002629  00000-0  18323-3 0  9994,2 52648  53.2182 119.9400 0003262  56.2061 303.9241 15.08836905 34212,6917.89,95.438,542.011,537.498,0.0
52648.0,STARLINK-3854,PAYLOAD,2022-12-24 11:07:04,15.08845616,0.0003183,53.2183,116.9661,55.8062,304.3231,0.00023235,3.412e-05,0.0,0 STARLINK-3854,1 52648U 22052BC  22358.46324993  .00003412  00000-0  23235-3 0  9994,2 52648  53.2183 116.9661 0003183  55.8062 304.3231 15.08845616 34311,6917.863,95.437,541.93,537.526,0.0
52648.0,STARLINK-3854,PAYLOAD,2022-12-24 17:28:37,15.08836257,0.0003263,53.2182,115.7772,52.717,307.4119,0.00038722,5.879e-05,0.0,0 STARLINK-3854,1 52648U 22052BC  22358.72821619  .00005879  00000-0  38722-3 0  9996,2 52648  53.2182 115.7772 0003263  52.7170 307.4119 15.08836257 34359,6917.892,95.438,542.014,537.5,0.0
52648.0,STARLINK-3854,PAYLOAD,2022-12-25 09:22:28,15.08839447,0.0003279,53.2183,112.8048,54.1891,305.9405,0.0001235,1.677e-05,0.0,0 STARLINK-3854,1 52648U 22052BC  22359.39061294  .00001677  00000-0  12350-3 0  9996,2 52648  53.2183 112.8048 0003279  54.1891 305.9405 15.08839447 34835,6917.882,95.438,542.015,537.479,0.0
52648.0,STARLINK-3854,PAYLOAD,2022-12-25 10:57:52,15.08838009,0.0003253999999999,53.2183,112.5073,54.026,306.1034,0.00010491,1.381e-05,0.0,0 STARLINK-3854,1 52648U 22052BC  22359.45685337  .00001381  00000-0  10491-3 0  9999,2 52648  53.2183 112.5073 0003254  54.0260 306.1034 15.08838009 34465,6917.886,95.438,542.003,537.5,0.0
52648.0,STARLINK-3854,PAYLOAD,2022-12-25 17:19:24,15.08838345,0.0003253999999999,53.2183,111.3179,53.6583,306.4709,7.645199999999999e-05,9.28e-06,0.0,0 STARLINK-3854,1 52648U 22052BC  22359.72181339  .00000928  00000-0  76452-4 0  9998,2 52648  53.2183 111.3179 0003254  53.6583 306.4709 15.08838345 34502,6917.885,95.438,542.002,537.499,0.0
52648.0,STARLINK-3854,PAYLOAD,2022-12-26 13:59:25,15.08845281,0.0003062,53.2181,107.4512,55.1828,304.9452,0.00016993,2.417e-05,0.0,0 STARLINK-3854,1 52648U 22052BC  22360.58293006  .00002417  00000-0  16993-3 0  9997,2 52648  53.2181 107.4512 0003062  55.1828 304.9452 15.08845281 34632,6917.864000000001,95.437,541.847,537.611,0.0
52648.0,STARLINK-3854,PAYLOAD,2022-12-26 17:10:11,15.0884518,0.0003057,53.2181,106.8575,53.3214,306.8058,0.00016616,2.357e-05,0.0,0 STARLINK-3854,1 52648U 22052BC  22360.71541018  .00002357  00000-0  16616-3 0  9996,2 52648  53.2181 106.8575 0003057  53.3214 306.8058 15.08845180 35033,6917.865,95.437,541.844,537.615,0.0
52648.0,STARLINK-3854,PAYLOAD,2022-12-27 13:50:11,15.08855081,0.0003122,53.2179,102.9913,53.6964,306.4316,0.00032744,4.929e-05,0.0,0 STARLINK-3854,1 52648U 22052BC  22361.57652331  .00004929  00000-0  32744-3 0  9999,2 52648  53.2179 102.9913 0003122  53.6964 306.4316 15.08855081 34786,6917.834,95.437,541.859,537.54,0.0
52648.0,STARLINK-3854,PAYLOAD,2022-12-27 17:00:57,15.08855436,0.0003076,53.2177,102.3975,54.1816,305.9461,0.0003291,4.955e-05,0.0,0 STARLINK-3854,1 52648U 22052BC  22361.70900334  .00004955  00000-0  32910-3 0  9997,2 52648  53.2177 102.3975 0003076  54.1816 305.9461 15.08855436 34808,6917.833000000001,95.437,541.826,537.57,0.0
52648.0,STARLINK-3854,PAYLOAD,2022-12-28 05:44:02,15.08861784,0.0003015,53.2181,100.0184,52.8825,307.2442,0.00032371,4.870000000000001e-05,0.0,0 STARLINK-3854,1 52648U 22052BC  22362.23891487  .00004870  00000-0  32371-3 0  9991,2 52648  53.2181 100.0184 0003015  52.8825 307.2442 15.08861784 35266,6917.814,95.436,541.765,537.5930000000002,0.0
52648.0,STARLINK-3854,PAYLOAD,2022-12-28 23:13:16,15.08845182,0.0001458,53.219,96.7461,6.6393,353.4618,-4.1085e-05,-9.42e-06,0.0,0 STARLINK-3854,1 52648U 22052BC  22362.96755354 -.00000942  00000-0 -41085-4 0  9994,2 52648  53.2190  96.7461 0001458   6.6393 353.4618 15.08845182 35375,6917.865,95.437,540.738,538.721,0.0
52648.0,STARLINK-3854,PAYLOAD,2022-12-29 07:10:13,15.08826001,0.000274,53.2173,95.2627,57.8319,302.2939,-0.00041166,-6.832e-05,0.0,0 STARLINK-3854,1 52648U 22052BC  22363.29876788 -.00006832  00000-0 -41166-3 0  9999,2 52648  53.2173  95.2627 0002740  57.8319 302.2939 15.08826001 35428,6917.9230000000025,95.438,541.684,537.893,0.0
52648.0,STARLINK-3854,PAYLOAD,2022-12-29 13:31:47,15.08809639,0.0002647,53.2191,94.0741,54.4133,305.7106,-0.00044262,-7.32e-05,0.0,0 STARLINK-3854,1 52648U 22052BC  22363.56373956 -.00007320  00000-0 -44262-3 0  9991,2 52648  53.2191  94.0741 0002647  54.4133 305.7106 15.08809639 35089,6917.973000000001,95.439,541.669,538.007,0.0
52648.0,STARLINK-3854,PAYLOAD,2022-12-29 15:07:10,15.08812574,0.0002658999999999,53.2187,93.7733,46.7486,313.3728,-0.00049771,-8.195e-05,0.0,0 STARLINK-3854,1 52648U 22052BC  22363.62998343 -.00008195  00000-0 -49771-3 0  9992,2 52648  53.2187  93.7733 0002659  46.7486 313.3728 15.08812574 35479,6917.964,95.439,541.669,537.99,0.0
52648.0,STARLINK-3854,PAYLOAD,2022-12-29 23:04:06,15.08825547,0.0002563999999999,53.2194,92.2877,47.4792,312.6416,-0.00012952,-2.348e-05,0.0,0 STARLINK-3854,1 52648U 22052BC  22363.96118927 -.00002348  00000-0 -12952-3 0  9996,2 52648  53.2194  92.2877 0002564  47.4792 312.6416 15.08825547 35529,6917.925,95.438,541.563,538.016,0.0
52648.0,STARLINK-3854,PAYLOAD,2022-12-30 10:11:47,15.08838144,0.0002448,53.2224,90.2078,53.8037,306.3181,0.0001727,2.461e-05,0.0,0 STARLINK-3854,1 52648U 22052BC  22364.42485426  .00002461  00000-0  17270-3 0  9991,2 52648  53.2224  90.2078 0002448  53.8037 306.3181 15.08838144 35591,6917.886,95.438,541.445,538.058,0.0
52648.0,STARLINK-3854,PAYLOAD,2022-12-30 13:22:33,15.08844983,0.0002353,53.2187,89.6107,46.9217,313.1972,0.00021226,3.092e-05,0.0,0 STARLINK-3854,1 52648U 22052BC  22364.55732940  .00003092  00000-0  21226-3 0  9998,2 52648  53.2187  89.6107 0002353  46.9217 313.1972 15.08844983 35235,6917.865,95.437,541.3580000000002,538.102,0.0
52648.0,STARLINK-3854,PAYLOAD,2022-12-30 22:54:51,15.08858915,0.0002615,53.2198,87.8267,43.1028,317.0169,0.00041832,6.379e-05,0.0,0 STARLINK-3854,1 52648U 22052BC  22364.95475996  .00006379  00000-0  41832-3 0  9993,2 52648  53.2198  87.8267 0002615  43.1028 317.0169 15.08858915 35673,6917.823,95.436,541.497,537.879,0.0
52648.0,STARLINK-3854,PAYLOAD,2022-12-31 05:16:24,15.08863028,0.000264,53.2185,86.6371,42.2248,317.8947,0.00057032,8.806e-05,0.0,0 STARLINK-3854,1 52648U 22052BC  22365.21972721  .00008806  00000-0  57032-3 0  9997,2 52648  53.2185  86.6371 0002640  42.2248 317.8947 15.08863028 35712,6917.81,95.436,541.501,537.849,0.0
52648.0,STARLINK-3854,PAYLOAD,2022-12-31 11:37:56,15.08879109,0.0002223,53.2184,85.4481,39.4097,320.7056,0.0008597999999999,0.00013437,0.0,0 STARLINK-3854,1 52648U 22052BC  22365.48468108  .00013437  00000-0  85980-3 0  9994,2 52648  53.2184  85.4481 0002223  39.4097 320.7056 15.08879109 35370,6917.761,95.435,541.164,538.0880000000002,0.0
52648.0,STARLINK-3854,PAYLOAD,2022-12-31 13:13:19,15.08885614,0.0002413,53.2186,85.1513,39.4708,320.646,0.00093388,0.00014625,0.0,0 STARLINK-3854,1 52648U 22052BC  22365.55091726  .00014625  00000-0  93388-3 0  9991,2 52648  53.2186  85.1513 0002413  39.4708 320.6460 15.08885614 35382,6917.741,95.435,541.275,537.937,0.0
52648.0,STARLINK-3854,PAYLOAD,2023-01-01 11:28:42,15.08841705,0.0002043,53.2192,80.988,27.1971,332.9128,-0.00075405,-0.0001227,0.0,0 STARLINK-3854,1 52648U 22052BC  23001.47826761 -.00012270  00000-0 -75405-3 0  9991,2 52648  53.2192  80.9880 0002043  27.1971 332.9128 15.08841705 35902,6917.875,95.437,541.153,538.327,0.0
52648.0,STARLINK-3854,PAYLOAD,2023-01-01 13:04:05,15.08836399,0.0002274,53.2185,80.6905,36.8276,323.2872,-0.0008798,-0.00014262,0.0,0 STARLINK-3854,1 52648U 22052BC  23001.54450847 -.00014262  00000-0 -87980-3 0  9991,2 52648  53.2185  80.6905 0002274  36.8276 323.2872 15.08836399 35531,6917.891,95.438,541.33,538.183,0.0
52648.0,STARLINK-3854,PAYLOAD,2023-01-02 11:19:29,15.08853614,0.000241,53.2189,76.5281,32.6828,327.4312,0.0012387,0.00019489,0.0,0 STARLINK-3854,1 52648U 22052BC  23002.47187189  .00019489  00000-0  12387-2 0  9992,2 52648  53.2189  76.5281 0002410  32.6828 327.4312 15.08853614 36057,6917.839,95.437,541.371,538.0369999999998,0.0
